[{"OBJECT_NAME":"KINEIS-5A","OBJECT_ID":"2024-219D","EPOCH":"2026-03-08T15:03:13.288032","MEAN_MOTION":14.72183086,"ECCENTRICITY":0.00019623,"INCLINATION":97.9753,"RA_OF_ASC_NODE":229.3802,"ARG_OF_PERICENTER":203.7354,"MEAN_ANOMALY":156.3764,"EPHEMERIS_TYPE":0,"CLASSIFICATION_TYPE":"U","NORAD_CAT_ID":62084,"ELEMENT_SET_NO":999,"REV_AT_EPOCH":6897,"BSTAR":0.00011705612,"MEAN_MOTION_DOT":6.89e-6,"MEAN_MOTION_DDOT":0},{"OBJECT_NAME":"CZ-4B DEB","OBJECT_ID":"1999-057GW","EPOCH":"2026-03-09T18:09:50.227776","MEAN_MOTION":14.57656249,"ECCENTRICITY":0.0073269,"INCLINATION":98.4547,"RA_OF_ASC_NODE":134.1659,"ARG_OF_PERICENTER":70.0235,"MEAN_ANOMALY":57.0246,"EPHEMERIS_TYPE":0,"CLASSIFICATION_TYPE":"U","NORAD_CAT_ID":26313,"ELEMENT_SET_NO":999,"REV_AT_EPOCH":36753,"BSTAR":0.00065427633,"MEAN_MOTION_DOT":3.045e-5,"MEAN_MOTION_DDOT":0}]
